ONEWEB-0150             
1 48047U 21025F   26128.26204116 -.00000110  00000+0 -33669-3 0  9997
2 48047  87.8957 328.1669 0001738  94.1296 266.0031 13.13470941248302
ONEWEB-0107             
1 48048U 21025G   26128.26371883 -.00000134  00000+0 -40092-3 0  9998
2 48048  87.8962 328.1617 0001475  89.5360 270.5938 13.13471445248283
ONEWEB-0101             
1 48049U 21025H   26128.07412980  .00000340  00000+0  89668-3 0  9991
2 48049  87.8948 328.2194 0001617  85.2382 274.8932 13.13471264248239
ONEWEB-0113             
1 48050U 21025J   26128.26376228 -.00000132  00000+0 -39477-3 0  9992
2 48050  87.8956 328.0956 0001769  89.8839 270.2494 13.13896521248363
ONEWEB-0112             
1 48051U 21025K   26128.26881368 -.00000238  00000+0 -68573-3 0  9995
2 48051  87.8959 328.1586 0001548  81.7281 278.4024 13.13470722248353
ONEWEB-0156             
1 48052U 21025L   26128.04874263 -.00000189  00000+0 -55307-3 0  9994
2 48052  87.8958 328.2125 0001613  92.0488 268.0826 13.13470440248307
ONEWEB-0161             
1 48053U 21025M   26128.25188083  .00000100  00000+0  23881-3 0  9999
2 48053  87.8950 328.1766 0001588  90.7347 269.3964 13.13470540248263
ONEWEB-0158             
1 48054U 21025N   26128.05889332 -.00000069  00000+0 -22414-3 0  9990
2 48054  87.8963 328.2095 0001910  83.2563 276.8783 13.13470841248367
ONEWEB-0157             
1 48055U 21025P   26128.08428333  .00000497  00000+0  13250-2 0  9994
2 48055  87.8956 328.2103 0001368  90.0542 270.0744 13.13470389248304
ONEWEB-0162             
1 48056U 21025Q   26128.06045205 -.00000060  00000+0 -19940-3 0  9997
2 48056  87.8952 328.2181 0001814  91.6676 268.4661 13.13471791248271
ONEWEB-0155             
1 48057U 21025R   26128.06735991  .00000147  00000+0  36836-3 0  9993
2 48057  87.8951 328.2124 0001581  84.4209 275.7100 13.13471782248416
ONEWEB-0149             
1 48058U 21025S   26128.24173309  .00000268  00000+0  69930-3 0  9998
2 48058  87.8960 328.1794 0001784  94.4172 265.7161 13.13470619248249
ONEWEB-0148             
1 48059U 21025T   26128.05212224 -.00000222  00000+0 -64414-3 0  9992
2 48059  87.8955 328.2273 0001719 107.1702 252.9615 13.13471737248341
ONEWEB-0160             
1 48060U 21025U   26128.06906742  .00000156  00000+0  39255-3 0  9999
2 48060  87.8950 328.2198 0002482  82.0059 278.1352 13.13470503248290
ONEWEB-0163             
1 48061U 21025V   26128.05380513 -.00000242  00000+0 -69679-3 0  9992
2 48061  87.8958 328.2157 0001459  88.7181 271.4116 13.13470969248410
ONEWEB-0159             
1 48062U 21025W   26128.04534569 -.00000257  00000+0 -73812-3 0  9994
2 48062  87.8961 328.2088 0001479  86.5307 273.5991 13.13473521248338
