[{"OBJECT_NAME":"ONEWEB-0150","OBJECT_ID":"2021-025F","EPOCH":"2026-05-08T06:17:20.356224","MEAN_MOTION":13.13470941,"ECCENTRICITY":0.0001738,"INCLINATION":87.8957,"RA_OF_ASC_NODE":328.1669,"ARG_OF_PERICENTER":94.1296,"MEAN_ANOMALY":266.0031,"EPHEMERIS_TYPE":0,"CLASSIFICATION_TYPE":"U","NORAD_CAT_ID":48047,"ELEMENT_SET_NO":999,"REV_AT_EPOCH":24830,"BSTAR":-0.00033669,"MEAN_MOTION_DOT":-1.1e-06,"MEAN_MOTION_DDOT":0.0},{"OBJECT_NAME":"ONEWEB-0107","OBJECT_ID":"2021-025G","EPOCH":"2026-05-08T06:19:45.306912","MEAN_MOTION":13.13471445,"ECCENTRICITY":0.0001475,"INCLINATION":87.8962,"RA_OF_ASC_NODE":328.1617,"ARG_OF_PERICENTER":89.536,"MEAN_ANOMALY":270.5938,"EPHEMERIS_TYPE":0,"CLASSIFICATION_TYPE":"U","NORAD_CAT_ID":48048,"ELEMENT_SET_NO":999,"REV_AT_EPOCH":24828,"BSTAR":-0.00040092000000000003,"MEAN_MOTION_DOT":-1.34e-06,"MEAN_MOTION_DDOT":0.0},{"OBJECT_NAME":"ONEWEB-0101","OBJECT_ID":"2021-025H","EPOCH":"2026-05-08T01:46:44.814720","MEAN_MOTION":13.13471264,"ECCENTRICITY":0.0001617,"INCLINATION":87.8948,"RA_OF_ASC_NODE":328.2194,"ARG_OF_PERICENTER":85.2382,"MEAN_ANOMALY":274.8932,"EPHEMERIS_TYPE":0,"CLASSIFICATION_TYPE":"U","NORAD_CAT_ID":48049,"ELEMENT_SET_NO":999,"REV_AT_EPOCH":24823,"BSTAR":0.0008966800000000001,"MEAN_MOTION_DOT":3.4e-06,"MEAN_MOTION_DDOT":0.0},{"OBJECT_NAME":"ONEWEB-0113","OBJECT_ID":"2021-025J","EPOCH":"2026-05-08T06:19:49.060992","MEAN_MOTION":13.13896521,"ECCENTRICITY":0.0001769,"INCLINATION":87.8956,"RA_OF_ASC_NODE":328.0956,"ARG_OF_PERICENTER":89.8839,"MEAN_ANOMALY":270.2494,"EPHEMERIS_TYPE":0,"CLASSIFICATION_TYPE":"U","NORAD_CAT_ID":48050,"ELEMENT_SET_NO":999,"REV_AT_EPOCH":24836,"BSTAR":-0.00039477,"MEAN_MOTION_DOT":-1.32e-06,"MEAN_MOTION_DDOT":0.0},{"OBJECT_NAME":"ONEWEB-0112","OBJECT_ID":"2021-025K","EPOCH":"2026-05-08T06:27:05.501952","MEAN_MOTION":13.13470722,"ECCENTRICITY":0.0001548,"INCLINATION":87.8959,"RA_OF_ASC_NODE":328.1586,"ARG_OF_PERICENTER":81.7281,"MEAN_ANOMALY":278.4024,"EPHEMERIS_TYPE":0,"CLASSIFICATION_TYPE":"U","NORAD_CAT_ID":48051,"ELEMENT_SET_NO":999,"REV_AT_EPOCH":24835,"BSTAR":-0.00068573,"MEAN_MOTION_DOT":-2.38e-06,"MEAN_MOTION_DDOT":0.0},{"OBJECT_NAME":"ONEWEB-0156","OBJECT_ID":"2021-025L","EPOCH":"2026-05-08T01:10:11.363232","MEAN_MOTION":13.1347044,"ECCENTRICITY":0.0001613,"INCLINATION":87.8958,"RA_OF_ASC_NODE":328.2125,"ARG_OF_PERICENTER":92.0488,"MEAN_ANOMALY":268.0826,"EPHEMERIS_TYPE":0,"CLASSIFICATION_TYPE":"U","NORAD_CAT_ID":48052,"ELEMENT_SET_NO":999,"REV_AT_EPOCH":24830,"BSTAR":-0.00055307,"MEAN_MOTION_DOT":-1.89e-06,"MEAN_MOTION_DDOT":0.0},{"OBJECT_NAME":"ONEWEB-0161","OBJECT_ID":"2021-025M","EPOCH":"2026-05-08T06:02:42.503712","MEAN_MOTION":13.1347054,"ECCENTRICITY":0.0001588,"INCLINATION":87.895,"RA_OF_ASC_NODE":328.1766,"ARG_OF_PERICENTER":90.7347,"MEAN_ANOMALY":269.3964,"EPHEMERIS_TYPE":0,"CLASSIFICATION_TYPE":"U","NORAD_CAT_ID":48053,"ELEMENT_SET_NO":999,"REV_AT_EPOCH":24826,"BSTAR":0.00023881,"MEAN_MOTION_DOT":1e-06,"MEAN_MOTION_DDOT":0.0},{"OBJECT_NAME":"ONEWEB-0158","OBJECT_ID":"2021-025N","EPOCH":"2026-05-08T01:24:48.382848","MEAN_MOTION":13.13470841,"ECCENTRICITY":0.000191,"INCLINATION":87.8963,"RA_OF_ASC_NODE":328.2095,"ARG_OF_PERICENTER":83.2563,"MEAN_ANOMALY":276.8783,"EPHEMERIS_TYPE":0,"CLASSIFICATION_TYPE":"U","NORAD_CAT_ID":48054,"ELEMENT_SET_NO":999,"REV_AT_EPOCH":24836,"BSTAR":-0.00022414,"MEAN_MOTION_DOT":-6.9e-07,"MEAN_MOTION_DDOT":0.0},{"OBJECT_NAME":"ONEWEB-0157","OBJECT_ID":"2021-025P","EPOCH":"2026-05-08T02:01:22.079712","MEAN_MOTION":13.13470389,"ECCENTRICITY":0.0001368,"INCLINATION":87.8956,"RA_OF_ASC_NODE":328.2103,"ARG_OF_PERICENTER":90.0542,"MEAN_ANOMALY":270.0744,"EPHEMERIS_TYPE":0,"CLASSIFICATION_TYPE":"U","NORAD_CAT_ID":48055,"ELEMENT_SET_NO":999,"REV_AT_EPOCH":24830,"BSTAR":0.001325,"MEAN_MOTION_DOT":4.97e-06,"MEAN_MOTION_DDOT":0.0},{"OBJECT_NAME":"ONEWEB-0162","OBJECT_ID":"2021-025Q","EPOCH":"2026-05-08T01:27:03.057120","MEAN_MOTION":13.13471791,"ECCENTRICITY":0.0001814,"INCLINATION":87.8952,"RA_OF_ASC_NODE":328.2181,"ARG_OF_PERICENTER":91.6676,"MEAN_ANOMALY":268.4661,"EPHEMERIS_TYPE":0,"CLASSIFICATION_TYPE":"U","NORAD_CAT_ID":48056,"ELEMENT_SET_NO":999,"REV_AT_EPOCH":24827,"BSTAR":-0.0001994,"MEAN_MOTION_DOT":-6e-07,"MEAN_MOTION_DDOT":0.0},{"OBJECT_NAME":"ONEWEB-0155","OBJECT_ID":"2021-025R","EPOCH":"2026-05-08T01:36:59.896224","MEAN_MOTION":13.13471782,"ECCENTRICITY":0.0001581,"INCLINATION":87.8951,"RA_OF_ASC_NODE":328.2124,"ARG_OF_PERICENTER":84.4209,"MEAN_ANOMALY":275.71,"EPHEMERIS_TYPE":0,"CLASSIFICATION_TYPE":"U","NORAD_CAT_ID":48057,"ELEMENT_SET_NO":999,"REV_AT_EPOCH":24841,"BSTAR":0.00036836000000000003,"MEAN_MOTION_DOT":1.47e-06,"MEAN_MOTION_DDOT":0.0},{"OBJECT_NAME":"ONEWEB-0149","OBJECT_ID":"2021-025S","EPOCH":"2026-05-08T05:48:05.738976","MEAN_MOTION":13.13470619,"ECCENTRICITY":0.0001784,"INCLINATION":87.896,"RA_OF_ASC_NODE":328.1794,"ARG_OF_PERICENTER":94.4172,"MEAN_ANOMALY":265.7161,"EPHEMERIS_TYPE":0,"CLASSIFICATION_TYPE":"U","NORAD_CAT_ID":48058,"ELEMENT_SET_NO":999,"REV_AT_EPOCH":24824,"BSTAR":0.0006993,"MEAN_MOTION_DOT":2.68e-06,"MEAN_MOTION_DDOT":0.0},{"OBJECT_NAME":"ONEWEB-0148","OBJECT_ID":"2021-025T","EPOCH":"2026-05-08T01:15:03.361536","MEAN_MOTION":13.13471737,"ECCENTRICITY":0.0001719,"INCLINATION":87.8955,"RA_OF_ASC_NODE":328.2273,"ARG_OF_PERICENTER":107.1702,"MEAN_ANOMALY":252.9615,"EPHEMERIS_TYPE":0,"CLASSIFICATION_TYPE":"U","NORAD_CAT_ID":48059,"ELEMENT_SET_NO":999,"REV_AT_EPOCH":24834,"BSTAR":-0.0006441400000000001,"MEAN_MOTION_DOT":-2.22e-06,"MEAN_MOTION_DDOT":0.0},{"OBJECT_NAME":"ONEWEB-0160","OBJECT_ID":"2021-025U","EPOCH":"2026-05-08T01:39:27.425088","MEAN_MOTION":13.13470503,"ECCENTRICITY":0.0002482,"INCLINATION":87.895,"RA_OF_ASC_NODE":328.2198,"ARG_OF_PERICENTER":82.0059,"MEAN_ANOMALY":278.1352,"EPHEMERIS_TYPE":0,"CLASSIFICATION_TYPE":"U","NORAD_CAT_ID":48060,"ELEMENT_SET_NO":999,"REV_AT_EPOCH":24829,"BSTAR":0.00039255000000000003,"MEAN_MOTION_DOT":1.56e-06,"MEAN_MOTION_DDOT":0.0},{"OBJECT_NAME":"ONEWEB-0163","OBJECT_ID":"2021-025V","EPOCH":"2026-05-08T01:17:28.763232","MEAN_MOTION":13.13470969,"ECCENTRICITY":0.0001459,"INCLINATION":87.8958,"RA_OF_ASC_NODE":328.2157,"ARG_OF_PERICENTER":88.7181,"MEAN_ANOMALY":271.4116,"EPHEMERIS_TYPE":0,"CLASSIFICATION_TYPE":"U","NORAD_CAT_ID":48061,"ELEMENT_SET_NO":999,"REV_AT_EPOCH":24841,"BSTAR":-0.0006967900000000001,"MEAN_MOTION_DOT":-2.42e-06,"MEAN_MOTION_DDOT":0.0},{"OBJECT_NAME":"ONEWEB-0159","OBJECT_ID":"2021-025W","EPOCH":"2026-05-08T01:05:17.867616","MEAN_MOTION":13.13473521,"ECCENTRICITY":0.0001479,"INCLINATION":87.8961,"RA_OF_ASC_NODE":328.2088,"ARG_OF_PERICENTER":86.5307,"MEAN_ANOMALY":273.5991,"EPHEMERIS_TYPE":0,"CLASSIFICATION_TYPE":"U","NORAD_CAT_ID":48062,"ELEMENT_SET_NO":999,"REV_AT_EPOCH":24833,"BSTAR":-0.00073812,"MEAN_MOTION_DOT":-2.57e-06,"MEAN_MOTION_DDOT":0.0}]